NORAD_CAT_ID,OBJECT_NAME,OBJECT_TYPE,EPOCH,MEAN_MOTION,ECCENTRICITY,INCLINATION,RA_OF_ASC_NODE,ARG_OF_PERICENTER,MEAN_ANOMALY,BSTAR,MEAN_MOTION_DOT,MEAN_MOTION_DDOT,TLE_LINE0,TLE_LINE1,TLE_LINE2,SEMIMAJOR_AXIS,PERIOD,APOGEE,PERIGEE,DECAYED
54802.0,STARLINK-5426,PAYLOAD,2023-08-19 10:36:07,15.08836506,0.0002292,53.2173,218.4011,35.962,324.1526,-9.7972e-05,-1.847e-05,0.0,0 STARLINK-5426,1 54802U 22175AW  23231.44175266 -.00001847  00000-0 -97972-4 0  9992,2 54802  53.2173 218.4011 0002292  35.9620 324.1526 15.08836506 37644,6917.891,95.438,541.342,538.17,0.0
54802.0,STARLINK-5426,PAYLOAD,2023-08-20 02:29:58,15.08839072,0.0002307,53.2171,215.4281,36.3126,323.8023,-9.8657e-06,-4.45e-06,0.0,0 STARLINK-5426,1 54802U 22175AW  23232.10414761 -.00000445  00000-0 -98657-5 0  9997,2 54802  53.2171 215.4281 0002307  36.3126 323.8023 15.08839072 37741,6917.883,95.438,541.344,538.152,0.0
54802.0,STARLINK-5426,PAYLOAD,2023-08-20 05:40:44,15.08837955,0.0002336,53.2168,214.8332,35.405,324.7097,-4.8985e-05,-1.068e-05,0.0,0 STARLINK-5426,1 54802U 22175AW  23232.23662996 -.00001068  00000-0 -48985-4 0  9996,2 54802  53.2168 214.8332 0002336  35.4050 324.7097 15.08837955 37766,6917.887,95.438,541.368,538.136,0.0
54802.0,STARLINK-5426,PAYLOAD,2023-08-20 10:26:54,15.08833293,0.000236,53.2165,213.9413,34.7924,325.3222,-8.4153e-05,-1.627e-05,0.0,0 STARLINK-5426,1 54802U 22175AW  23232.43535403 -.00001627  00000-0 -84153-4 0  9998,2 54802  53.2165 213.9413 0002360  34.7924 325.3222 15.08833293 37793,6917.901,95.438,541.399,538.133,0.0
54802.0,STARLINK-5426,PAYLOAD,2023-08-21 02:20:45,15.08837245,0.0002581,53.217,210.9685,30.8809,329.2335,1.8395e-05,4e-08,0.0,0 STARLINK-5426,1 54802U 22175AW  23233.09775062  .00000004  00000-0  18395-4 0  9999,2 54802  53.2170 210.9685 0002581  30.8809 329.2335 15.08837245 37891,6917.889,95.438,541.539,537.968,0.0
54802.0,STARLINK-5426,PAYLOAD,2023-08-21 05:31:31,15.08840435,0.0002364,53.2169,210.3721,37.3532,322.7625,7.6772e-05,9.34e-06,0.0,0 STARLINK-5426,1 54802U 22175AW  23233.23022607  .00000934  00000-0  76772-4 0  9990,2 54802  53.2169 210.3721 0002364  37.3532 322.7625 15.08840435 37916,6917.879,95.438,541.379,538.109,0.0
54802.0,STARLINK-5426,PAYLOAD,2023-08-21 10:17:41,15.0883008,0.0002356,53.2175,209.4804,37.0197,323.0957,2.8417e-06,-2.43e-06,0.0,0 STARLINK-5426,1 54802U 22175AW  23233.42895549 -.00000243  00000-0  28417-5 0  9992,2 54802  53.2175 209.4804 0002356  37.0197 323.0957 15.08830080 37949,6917.911,95.438,541.406,538.146,0.0
54802.0,STARLINK-5426,PAYLOAD,2023-08-22 02:11:32,15.088371,0.0002529,53.2172,206.5074,32.6996,327.4152,7.5762e-05,9.17e-06,0.0,0 STARLINK-5426,1 54802U 22175AW  23234.09135028  .00000917  00000-0  75762-4 0  9996,2 54802  53.2172 206.5074 0002529  32.6996 327.4152 15.08837100 38040,6917.889,95.438,541.504,538.005,0.0
54802.0,STARLINK-5426,PAYLOAD,2023-08-22 08:33:05,15.08832092,0.0002447,53.2183,205.3184,38.738,321.3787,-4.2587e-06,-3.56e-06,0.0,0 STARLINK-5426,1 54802U 22175AW  23234.35631764 -.00000356  00000-0 -42587-5 0  9992,2 54802  53.2183 205.3184 0002447  38.7380 321.3787 15.08832092 38080,6917.905,95.438,541.462,538.077,0.0
54802.0,STARLINK-5426,PAYLOAD,2023-08-23 02:02:19,15.08842889,0.0002047,53.2171,202.0493,39.4611,320.653,1.3379e-05,-7.5e-07,0.0,0 STARLINK-5426,1 54802U 22175AW  23235.08495047 -.00000075  00000-0  13379-4 0  9998,2 54802  53.2171 202.0493 0002047  39.4611 320.6530 15.08842889 38190,6917.872,95.437,541.153,538.32,0.0
54802.0,STARLINK-5426,PAYLOAD,2023-08-23 09:59:15,15.08841225,0.0002029,53.2164,200.5597,36.1038,324.0091,-1.8537e-05,-5.83e-06,0.0,0 STARLINK-5426,1 54802U 22175AW  23235.41615240 -.00000583  00000-0 -18537-4 0  9990,2 54802  53.2164 200.5597 0002029  36.1038 324.0091 15.08841225 38246,6917.877,95.437,541.145,538.338,0.0
54802.0,STARLINK-5426,PAYLOAD,2023-08-24 20:57:45,15.08832551,0.0002349,53.217,194.018,29.8918,330.2208,-3.1575e-05,-7.91e-06,0.0,0 STARLINK-5426,1 54802U 22175AW  23236.87344094 -.00000791  00000-0 -31575-4 0  9995,2 54802  53.2170 194.0180 0002349  29.8918 330.2208 15.08832551 40625,6917.903,95.438,541.393,538.143,0.0
54802.0,STARLINK-5426,PAYLOAD,2023-08-25 00:08:31,15.08835566,0.000228,53.2165,193.424,29.6026,330.5094,-1.0716e-05,-4.59e-06,0.0,0 STARLINK-5426,1 54802U 22175AW  23237.00591824 -.00000459  00000-0 -10716-4 0  9991,2 54802  53.2165 193.4240 0002280  29.6026 330.5094 15.08835566 38487,6917.894,95.438,541.336,538.182,0.0
54802.0,STARLINK-5426,PAYLOAD,2023-08-25 04:54:40,15.08840259,0.000242,53.217,192.5334,32.8767,327.2375,4.5494e-05,4.36e-06,0.0,0 STARLINK-5426,1 54802U 22175AW  23237.20463375  .00000436  00000-0  45494-4 0  9996,2 54802  53.2170 192.5334 0002420  32.8767 327.2375 15.08840259 38515,6917.88,95.438,541.419,538.07,0.0
54802.0,STARLINK-5426,PAYLOAD,2023-08-25 20:48:32,15.08834427,0.0002696,53.2167,189.5605,30.7952,329.3198,-5.7888e-06,-3.81e-06,0.0,0 STARLINK-5426,1 54802U 22175AW  23237.86704097 -.00000381  00000-0 -57888-5 0  9999,2 54802  53.2167 189.5605 0002696  30.7952 329.3198 15.08834427 38613,6917.897,95.438,541.627,537.897,0.0
54802.0,STARLINK-5426,PAYLOAD,2023-08-26 01:34:37,15.08887178,0.0002499,53.2169,188.6669,57.868,302.2555,0.00048858,7.506e-05,0.0,0 STARLINK-5426,1 54802U 22175AW  23238.06570907  .00007506  00000-0  48858-3 0  9992,2 54802  53.2169 188.6669 0002499  57.8680 302.2555 15.08887178 38645,6917.736,95.435,541.33,537.872,0.0
54802.0,STARLINK-5426,PAYLOAD,2023-08-26 06:20:34,15.09029795,0.0002476,53.2185,187.7737,39.1202,320.9969,0.0016225,0.00025764,0.0,0 STARLINK-5426,1 54802U 22175AW  23238.26428512  .00025764  00000-0  16225-2 0  9996,2 54802  53.2185 187.7737 0002476  39.1202 320.9969 15.09029795 38670,6917.3,95.426,540.878,537.453,0.0
54802.0,STARLINK-5426,PAYLOAD,2023-08-27 01:24:19,15.0952122,0.0001306,53.2182,184.206,103.9324,256.1814,0.0049507,0.00080907,0.0,0 STARLINK-5426,1 54802U 22175AW  23239.05855568  .00080907  00000-0  49507-2 0  9998,2 54802  53.2182 184.2060 0001306 103.9324 256.1814 15.09521220 38796,6915.799,95.394,538.567,536.761,0.0
54802.0,STARLINK-5426,PAYLOAD,2023-08-27 06:10:10,15.09658134,0.0001667,53.2177,183.3104,36.0007,324.1098,0.0057542,0.00094624,0.0,0 STARLINK-5426,1 54802U 22175AW  23239.25707000  .00094624  00000-0  57542-2 0  9996,2 54802  53.2177 183.3104 0001667  36.0007 324.1098 15.09658134 38822,6915.381,95.386,538.399,536.093,0.0
54802.0,STARLINK-5426,PAYLOAD,2023-08-27 22:00:00,15.10476232,0.0001892,53.2173,180.343,40.1359,306.7019,-0.00017551,-3.213e-05,0.0,0 STARLINK-5426,1 54802U 22175AW  23239.91667824 -.00003213  00000-0 -17551-3 0  9991,2 54802  53.2173 180.3430 0001892  40.1359 306.7019 15.10476232 38922,6912.884,95.334,536.057,533.441,0.0
54802.0,STARLINK-5426,PAYLOAD,2023-08-28 06:00:02,15.1048979,0.0001985,53.2167,178.8444,40.3927,320.1038,-0.00029504,-5.203e-05,0.0,0 STARLINK-5426,1 54802U 22175AW  23240.25002315 -.00005203  00000-0 -29504-3 0  9990,2 54802  53.2167 178.8444 0001985  40.3927 320.1038 15.10489790 38977,6912.842,95.333,536.079,533.335,0.0
54802.0,STARLINK-5426,PAYLOAD,2023-08-28 14:00:01,15.10470134,0.0001821,53.2169,177.3427,44.1211,329.8958,-0.0027055,-0.00045044,0.0,0 STARLINK-5426,1 54802U 22175AW  23240.58334491 -.00045044  00000-0 -27055-2 0  9994,2 54802  53.2169 177.3427 0001821  44.1211 329.8958 15.10470134 39027,6912.902,95.335,536.026,533.508,0.0
54802.0,STARLINK-5426,PAYLOAD,2023-08-28 22:00:00,15.10458225,0.0001809,53.2172,175.8429,47.0701,340.4756,0.00029903,4.686e-05,0.0,0 STARLINK-5426,1 54802U 22175AW  23240.91667824  .00004686  00000-0  29903-3 0  9990,2 54802  53.2172 175.8429 0001809  47.0701 340.4756 15.10458225 39075,6912.939,95.335,536.054,533.553,0.0
54802.0,STARLINK-5426,PAYLOAD,2023-08-29 06:00:00,15.10442648,0.0001953,53.2172,174.3442,42.4418,358.6529,0.0040566,0.00067824,0.0,0 STARLINK-5426,1 54802U 22175AW  23241.25001157  .00067824  00000-0  40566-2 0  9999,2 54802  53.2172 174.3442 0001953  42.4418 358.6529 15.10442648 39125,6912.986,95.336,536.201,533.501,0.0
54802.0,STARLINK-5426,PAYLOAD,2023-08-29 14:00:01,15.10483793,0.0001751,53.2173,172.8425,45.4839,9.1589,-2.6029e-05,-7.26e-06,0.0,0 STARLINK-5426,1 54802U 22175AW  23241.58334491 -.00000726  00000-0 -26029-4 0  9995,2 54802  53.2173 172.8425 0001751  45.4839   9.1589 15.10483793 39171,6912.861,95.334,535.936,533.515,0.0
54802.0,STARLINK-5426,PAYLOAD,2023-08-29 22:00:00,15.10504542,0.0001702,53.2175,171.3428,45.5128,22.6954,-0.0026047,-0.00043427,0.0,0 STARLINK-5426,1 54802U 22175AW  23241.91667824 -.00043427  00000-0 -26047-2 0  9994,2 54802  53.2175 171.3428 0001702  45.5128  22.6954 15.10504542 39226,6912.797,95.332,535.839,533.486,0.0
54802.0,STARLINK-5426,PAYLOAD,2023-08-30 06:00:00,15.10448925,0.0001786,53.2173,169.8441,49.3256,32.4962,0.00069727,0.00011325,0.0,0 STARLINK-5426,1 54802U 22175AW  23242.25001157  .00011325  00000-0  69727-3 0  9996,2 54802  53.2173 169.8441 0001786  49.3256  32.4962 15.10448925 39272,6912.967,95.336,536.067,533.597,0.0
54802.0,STARLINK-5426,PAYLOAD,2023-08-30 14:00:01,15.10440633,0.0001563,53.2174,168.3423,58.0447,37.3155,0.0020675,0.00034259,0.0,0 STARLINK-5426,1 54802U 22175AW  23242.58334491  .00034259  00000-0  20675-2 0  9991,2 54802  53.2174 168.3423 0001563  58.0447  37.3155 15.10440633 39321,6912.992,95.336,535.938,533.777,0.0
54802.0,STARLINK-5426,PAYLOAD,2023-08-30 22:00:00,15.10494095,0.0001594,53.2174,166.8429,61.1892,47.6981,-0.0019429,-0.00032507,0.0,0 STARLINK-5426,1 54802U 22175AW  23242.91667824 -.00032507  00000-0 -19429-2 0  9998,2 54802  53.2174 166.8429 0001594  61.1892  47.6981 15.10494095 39370,6912.829,95.333,535.796,533.592,0.0
54802.0,STARLINK-5426,PAYLOAD,2023-08-31 00:00:02,15.10497943,0.0001614,53.2173,166.4684,59.7666,142.5758,-0.0033319,-0.00055368,0.0,0 STARLINK-5426,1 54802U 22175AW  23243.00002315 -.00055368  00000-0 -33319-2 0  9991,2 54802  53.2173 166.4684 0001614  59.7666 142.5758 15.10497943  5761,6912.817,95.333,535.798,533.567,0.0
